{
  "type": "FeatureCollection",
  "features": [
    {
      "type": "Feature",
      "properties": {
        "norad_id": 43602,
        "name": "BEIDOU-3 M12 (C26)",
        "group": "beidou",
        "lat": 53.99248383145097,
        "lon": -89.00053159466599,
        "alt_km": 21503.929724342514,
        "timestamp": "2025-12-18T14:52:08.291189+00:00",
        "meta_object_name": "BEIDOU-3 M12 (C26)",
        "meta_object_id": "2018-067A",
        "meta_epoch": "2025-12-17T22:53:45.555072",
        "meta_mean_motion": 1.86227791,
        "meta_eccentricity": 0.00092249,
        "meta_inclination": 54.1833,
        "meta_ra_of_asc_node": 187.186,
        "meta_arg_of_pericenter": 41.0055,
        "meta_mean_anomaly": 319.1284,
        "meta_ephemeris_type": 0,
        "meta_classification_type": "U",
        "meta_norad_cat_id": 43602,
        "meta_element_set_no": 999,
        "meta_rev_at_epoch": 4974,
        "meta_bstar": 0,
        "meta_mean_motion_dot": 1.1e-06,
        "meta_mean_motion_ddot": 0,
        "tle_line1": "1 43602U 18067A   25351.95399948  .00000110  00000+0  00000+0 0  9999",
        "tle_line2": "2 43602  54.1833 187.1860 0009224  41.0055 319.1284  1.86227791 49749"
      },
      "geometry": {
        "type": "Point",
        "coordinates": [
          -89.00053159466599,
          53.99248383145097
        ]
      }
    },
    {
      "type": "Feature",
      "properties": {
        "norad_id": 43603,
        "name": "BEIDOU-3 M11 (C25)",
        "group": "beidou",
        "lat": -3.228869884381159,
        "lon": -175.20291353550954,
        "alt_km": 21517.239516366422,
        "timestamp": "2025-12-18T14:52:08.291200+00:00",
        "meta_object_name": "BEIDOU-3 M11 (C25)",
        "meta_object_id": "2018-067B",
        "meta_epoch": "2025-12-17T00:21:01.872864",
        "meta_mean_motion": 1.86227285,
        "meta_eccentricity": 0.00055921,
        "meta_inclination": 54.1804,
        "meta_ra_of_asc_node": 187.182,
        "meta_arg_of_pericenter": 36.5835,
        "meta_mean_anomaly": 323.5212,
        "meta_ephemeris_type": 0,
        "meta_classification_type": "U",
        "meta_norad_cat_id": 43603,
        "meta_element_set_no": 999,
        "meta_rev_at_epoch": 4975,
        "meta_bstar": 0,
        "meta_mean_motion_dot": 1.14e-06,
        "meta_mean_motion_ddot": 0,
        "tle_line1": "1 43603U 18067B   25351.01460501  .00000114  00000+0  00000+0 0  9995",
        "tle_line2": "2 43603  54.1804 187.1820 0005592  36.5835 323.5212  1.86227285 49752"
      },
      "geometry": {
        "type": "Point",
        "coordinates": [
          -175.20291353550954,
          -3.228869884381159
        ]
      }
    },
    {
      "type": "Feature",
      "properties": {
        "norad_id": 43622,
        "name": "BEIDOU-3 M13 (C32)",
        "group": "beidou",
        "lat": 20.813776494248522,
        "lon": 83.2184839754141,
        "alt_km": 21524.47782941874,
        "timestamp": "2025-12-18T14:52:08.291211+00:00",
        "meta_object_name": "BEIDOU-3 M13 (C32)",
        "meta_object_id": "2018-072A",
        "meta_epoch": "2025-12-18T01:04:45.751872",
        "meta_mean_motion": 1.86231057,
        "meta_eccentricity": 0.00059817,
        "meta_inclination": 56.4642,
        "meta_ra_of_asc_node": 68.6443,
        "meta_arg_of_pericenter": 299.083,
        "meta_mean_anomaly": 60.8858,
        "meta_ephemeris_type": 0,
        "meta_classification_type": "U",
        "meta_norad_cat_id": 43622,
        "meta_element_set_no": 999,
        "meta_rev_at_epoch": 4928,
        "meta_bstar": 0,
        "meta_mean_motion_dot": -6.7e-07,
        "meta_mean_motion_ddot": 0,
        "tle_line1": "1 43622U 18072A   25352.04497398 -.00000067  00000+0  00000+0 0  9998",
        "tle_line2": "2 43622  56.4642  68.6443 0005981 299.0830  60.8858  1.86231057 49282"
      },
      "geometry": {
        "type": "Point",
        "coordinates": [
          83.2184839754141,
          20.813776494248522
        ]
      }
    },
    {
      "type": "Feature",
      "properties": {
        "norad_id": 43623,
        "name": "BEIDOU-3 M14 (C33)",
        "group": "beidou",
        "lat": 48.83999073317004,
        "lon": -160.60197749622805,
        "alt_km": 21529.65400381111,
        "timestamp": "2025-12-18T14:52:08.291223+00:00",
        "meta_object_name": "BEIDOU-3 M14 (C33)",
        "meta_object_id": "2018-072B",
        "meta_epoch": "2025-12-17T08:57:48.957984",
        "meta_mean_motion": 1.86231002,
        "meta_eccentricity": 0.00033285,
        "meta_inclination": 56.4654,
        "meta_ra_of_asc_node": 68.6605,
        "meta_arg_of_pericenter": 332.8139,
        "meta_mean_anomaly": 27.1942,
        "meta_ephemeris_type": 0,
        "meta_classification_type": "U",
        "meta_norad_cat_id": 43623,
        "meta_element_set_no": 999,
        "meta_rev_at_epoch": 4926,
        "meta_bstar": 0,
        "meta_mean_motion_dot": -7.3e-07,
        "meta_mean_motion_ddot": 0,
        "tle_line1": "1 43623U 18072B   25351.37348331 -.00000073  00000+0  00000+0 0  9993",
        "tle_line2": "2 43623  56.4654  68.6605 0003328 332.8139  27.1942  1.86231002 49265"
      },
      "geometry": {
        "type": "Point",
        "coordinates": [
          -160.60197749622805,
          48.83999073317004
        ]
      }
    },
    {
      "type": "Feature",
      "properties": {
        "norad_id": 43647,
        "name": "BEIDOU-3 M16 (C35)",
        "group": "beidou",
        "lat": 7.836875791450057,
        "lon": -48.024862200191755,
        "alt_km": 21507.04980805974,
        "timestamp": "2025-12-18T14:52:08.291234+00:00",
        "meta_object_name": "BEIDOU-3 M16 (C35)",
        "meta_object_id": "2018-078A",
        "meta_epoch": "2025-12-18T01:38:11.471712",
        "meta_mean_motion": 1.86232421,
        "meta_eccentricity": 0.00073225,
        "meta_inclination": 54.2571,
        "meta_ra_of_asc_node": 306.335,
        "meta_arg_of_pericenter": 19.7633,
        "meta_mean_anomaly": 340.2526,
        "meta_ephemeris_type": 0,
        "meta_classification_type": "U",
        "meta_norad_cat_id": 43647,
        "meta_element_set_no": 999,
        "meta_rev_at_epoch": 4878,
        "meta_bstar": 0,
        "meta_mean_motion_dot": -8.5e-07,
        "meta_mean_motion_ddot": 0,
        "tle_line1": "1 43647U 18078A   25352.06818833 -.00000085  00000+0  00000+0 0  9994",
        "tle_line2": "2 43647  54.2571 306.3350 0007322  19.7633 340.2526  1.86232421 48781"
      },
      "geometry": {
        "type": "Point",
        "coordinates": [
          -48.024862200191755,
          7.836875791450057
        ]
      }
    },
    {
      "type": "Feature",
      "properties": {
        "norad_id": 43648,
        "name": "BEIDOU-3 M15 (C34)",
        "group": "beidou",
        "lat": -52.264189193476604,
        "lon": -122.13239866578434,
        "alt_km": 21534.971238361763,
        "timestamp": "2025-12-18T14:52:08.291245+00:00",
        "meta_object_name": "BEIDOU-3 M15 (C34)",
        "meta_object_id": "2018-078B",
        "meta_epoch": "2025-12-17T15:51:04.131072",
        "meta_mean_motion": 1.86232271,
        "meta_eccentricity": 0.00039327,
        "meta_inclination": 54.253,
        "meta_ra_of_asc_node": 306.3494,
        "meta_arg_of_pericenter": 20.2564,
        "meta_mean_anomaly": 339.7463,
        "meta_ephemeris_type": 0,
        "meta_classification_type": "U",
        "meta_norad_cat_id": 43648,
        "meta_element_set_no": 999,
        "meta_rev_at_epoch": 4879,
        "meta_bstar": 0,
        "meta_mean_motion_dot": -8.8e-07,
        "meta_mean_motion_ddot": 0,
        "tle_line1": "1 43648U 18078B   25351.66046448 -.00000088  00000+0  00000+0 0  9998",
        "tle_line2": "2 43648  54.2530 306.3494 0003932  20.2564 339.7463  1.86232271 48796"
      },
      "geometry": {
        "type": "Point",
        "coordinates": [
          -122.13239866578434,
          -52.264189193476604
        ]
      }
    },
    {
      "type": "Feature",
      "properties": {
        "norad_id": 43683,
        "name": "BEIDOU-3 G1 (C59)",
        "group": "beidou",
        "lat": -0.529052174113289,
        "lon": 90.53970356683186,
        "alt_km": 35783.549271585696,
        "timestamp": "2025-12-18T14:52:08.291257+00:00",
        "meta_object_name": "BEIDOU-3 G1 (C59)",
        "meta_object_id": "2018-085A",
        "meta_epoch": "2025-12-18T07:06:45.948960",
        "meta_mean_motion": 1.00269273,
        "meta_eccentricity": 0.0001633,
        "meta_inclination": 2.6212,
        "meta_ra_of_asc_node": 102.8031,
        "meta_arg_of_pericenter": 48.7365,
        "meta_mean_anomaly": 182.3535,
        "meta_ephemeris_type": 0,
        "meta_classification_type": "U",
        "meta_norad_cat_id": 43683,
        "meta_element_set_no": 999,
        "meta_rev_at_epoch": 2624,
        "meta_bstar": 0,
        "meta_mean_motion_dot": -2.55e-06,
        "meta_mean_motion_ddot": 0,
        "tle_line1": "1 43683U 18085A   25352.29636515 -.00000255  00000+0  00000+0 0  9991",
        "tle_line2": "2 43683   2.6212 102.8031 0001633  48.7365 182.3535  1.00269273 26241"
      },
      "geometry": {
        "type": "Point",
        "coordinates": [
          90.53970356683186,
          -0.529052174113289
        ]
      }
    }
  ]
}